{
"type": "FeatureCollection",
"name": "prefreg",
"crs": { "type": "name", "properties": { "name": "urn:ogc:def:crs:EPSG::4236" } },
"features": [
{ "type": "Feature", "properties": { "lib_com": "Marseille" }, "geometry": { "type": "Point", "coordinates": [ 5.422480886981824, 43.29251246433747 ] } },
{ "type": "Feature", "properties": { "lib_com": "Dijon" }, "geometry": { "type": "Point", "coordinates": [ 5.037546367705694, 47.322717969107089 ] } },
{ "type": "Feature", "properties": { "lib_com": "Ajaccio" }, "geometry": { "type": "Point", "coordinates": [ 8.701429921321699, 41.935228140111576 ] } },
{ "type": "Feature", "properties": { "lib_com": "Toulouse" }, "geometry": { "type": "Point", "coordinates": [ 1.432046166212378, 43.596001827892728 ] } },
{ "type": "Feature", "properties": { "lib_com": "Bordeaux" }, "geometry": { "type": "Point", "coordinates": [ -0.573554963882117, 44.857529067927494 ] } },
{ "type": "Feature", "properties": { "lib_com": "Rennes" }, "geometry": { "type": "Point", "coordinates": [ -1.682264153735775, 48.11118894897858 ] } },
{ "type": "Feature", "properties": { "lib_com": "Nantes" }, "geometry": { "type": "Point", "coordinates": [ -1.547930440296966, 47.232398235576824 ] } },
{ "type": "Feature", "properties": { "lib_com": "Orléans" }, "geometry": { "type": "Point", "coordinates": [ 1.920256199849061, 47.869288029816438 ] } },
{ "type": "Feature", "properties": { "lib_com": "Lille" }, "geometry": { "type": "Point", "coordinates": [ 3.046349486590948, 50.631497600494804 ] } },
{ "type": "Feature", "properties": { "lib_com": "Strasbourg" }, "geometry": { "type": "Point", "coordinates": [ 7.767292006414229, 48.57070965357704 ] } },
{ "type": "Feature", "properties": { "lib_com": "Lyon" }, "geometry": { "type": "Point", "coordinates": [ 4.836025833561578, 45.75513636161287 ] } },
{ "type": "Feature", "properties": { "lib_com": "Paris" }, "geometry": { "type": "Point", "coordinates": [ 2.34211443295257, 48.856651711572788 ] } },
{ "type": "Feature", "properties": { "lib_com": "Rouen" }, "geometry": { "type": "Point", "coordinates": [ 1.095382994946261, 49.441506277030065 ] } },
{ "type": "Feature", "properties": { "lib_com": "Basse-Terre" }, "geometry": { "type": "Point", "coordinates": [ -4.420859700412461, 45.060770456014261 ] } },
{ "type": "Feature", "properties": { "lib_com": "Fort-de-France" }, "geometry": { "type": "Point", "coordinates": [ -3.735543807734072, 44.054574798445614 ] } },
{ "type": "Feature", "properties": { "lib_com": "Cayenne" }, "geometry": { "type": "Point", "coordinates": [ -2.33290016894044, 42.977900022926157 ] } },
{ "type": "Feature", "properties": { "lib_com": "Saint-Denis" }, "geometry": { "type": "Point", "coordinates": [ -2.478783893937926, 44.819439840424295 ] } },
{ "type": "Feature", "properties": { "lib_com": "Dzaoudzi" }, "geometry": { "type": "Point", "coordinates": [ -1.830901142109252, 45.634953449840395 ] } }
]
}
